OBJECT_NAME,OBJECT_ID,EPOCH,MEAN_MOTION,ECCENTRICITY,INCLINATION,RA_OF_ASC_NODE,ARG_OF_PERICENTER,MEAN_ANOMALY,EPHEMERIS_TYPE,CLASSIFICATION_TYPE,NORAD_CAT_ID,ELEMENT_SET_NO,REV_AT_EPOCH,BSTAR,MEAN_MOTION_DOT,MEAN_MOTION_DDOT
SPACEBEE-158,2023-001CV,2024-01-20T09:36:01.257984,15.31609092,.0011855,97.4483,84.8042,324.1274,35.9170,0,U,55100,999,5820,.12986E-2,.39803E-3,0
SPACEBEE-159,2023-001CW,2024-01-20T14:55:13.177056,15.33077200,.0011929,97.4465,85.3872,321.4162,38.6226,0,U,55101,999,5826,.12893E-2,.41383E-3,0
SPACEBEE-157,2023-001CX,2024-01-20T02:44:36.905856,15.33253902,.0010818,97.4447,84.9274,325.3963,34.6574,0,U,55102,999,5819,.13826E-2,.44632E-3,0
SPACEBEE-179,2023-084AP,2024-01-20T07:29:59.691552,15.23363309,.0011893,97.5258,140.5208,160.0936,200.0767,0,U,56969,999,3359,.13122E-2,.3128E-3,0
SPACEBEE-177,2023-084AS,2024-01-20T07:43:41.498976,15.24314505,.0011799,97.5254,140.6670,160.0491,200.1210,0,U,56972,999,3360,.14688E-2,.36046E-3,0
SPACEBEE-178,2023-084AT,2024-01-20T07:46:34.870080,15.23130505,.0012398,97.5281,140.5448,161.3562,198.8131,0,U,56973,999,3359,.1471E-2,.34856E-3,0
SPACEBEE-174,2023-084AW,2024-01-20T00:08:20.198976,15.23881305,.0012205,97.5261,140.3260,160.6815,199.4887,0,U,56976,999,3355,.1426E-2,.34544E-3,0
SPACEBEE-173,2023-084AY,2024-01-20T07:50:22.910784,15.23976401,.0012442,97.5262,140.6690,158.9723,201.2028,0,U,56978,999,3360,.13865E-2,.33679E-3,0
SPACEBEE-172,2023-084AZ,2024-01-20T06:34:50.018592,15.23890739,.0012548,97.5258,140.5758,160.2987,199.8737,0,U,56979,999,3359,.14168E-2,.34333E-3,0
SPACEBEE-171,2023-084BA,2024-01-20T07:42:07.822368,15.24043191,.0012468,97.5260,140.6782,158.9619,201.2133,0,U,56980,999,3360,.13815E-2,.33624E-3,0
SPACEBEE-170,2023-084BD,2024-01-20T08:03:21.951072,15.23799456,.0012046,97.5277,140.6740,156.2270,203.9526,0,U,56983,999,3360,.15037E-2,.36348E-3,0
SPACEBEE-168,2023-084BE,2024-01-20T07:00:46.568160,15.24979253,.001232,97.5257,140.7502,160.8593,199.3110,0,U,56984,999,3360,.16469E-2,.41272E-3,0
SPACEBEE-175,2023-084BF,2024-01-20T07:27:38.939040,15.23807273,.001344,97.5276,140.7105,162.7028,197.4670,0,U,56985,999,3360,.14086E-2,.34059E-3,0
