55100,SPACEBEE-158,2023,94.03,2.0,+,97.45,Active,1,LEO,USA,USA,Commercial,Communications,Falcon,1 55100U 23001CV  24020.40001456  .00039803  00000+0  12986-2 0  9995,2 55100  97.4483  84.8042 0011855 324.1274  35.9170 15.31609092 58203,15.31609092,0.0011855,LEO
55101,SPACEBEE-159,2023,93.94,2.0,+,97.45,Active,1,LEO,USA,USA,Commercial,Communications,Falcon,1 55101U 23001CW  24020.62168029  .00041383  00000+0  12893-2 0  9993,2 55101  97.4465  85.3872 0011929 321.4162  38.6226 15.33077200 58269,15.330772,0.0011929,LEO
55102,SPACEBEE-157,2023,93.92,2.0,+,97.44,Active,1,LEO,USA,USA,Commercial,Communications,Fa,1 55102U 23001CX  24020.11431604  .00044632  00000+0  13826-2 0  9997,2 55102  97.4447  84.9274 0010818 325.3963  34.6574 15.33253902 58198,15.33253902,0.0010818,LEO
56969,SPACEBEE-179,2023,94.53,-1.0,+,97.53,Active,0,LEO,USA,USA,Unknown,Unknown,Vega,1 56969U 23084AP  24020.31249643  .00031280  00000+0  13122-2 0  9996,2 56969  97.5258 140.5208 0011893 160.0936 200.0767 15.23363309 33597,15.23363309,0.0011893,LEO
56972,SPACEBEE-177,2023,94.47,-1.0,+,97.53,Active,0,LEO,USA,USA,Unknown,Unknown,Vega,1 56972U 23084AS  24020.32200809  .00036046  00000+0  14688-2 0  9995,2 56972  97.5254 140.6670 0011799 160.0491 200.1210 15.24314505 33603,15.24314505,0.0011799,LEO
56973,SPACEBEE-178,2023,94.55,-1.0,+,97.53,Active,0,LEO,USA,USA,Unknown,Unknown,Vega,1 56973U 23084AT  24020.32401470  .00034856  00000+0  14710-2 0  9996,2 56973  97.5281 140.5448 0012398 161.3562 198.8131 15.23130505 33593,15.23130505,0.0012398,LEO
56976,SPACEBEE-174,2023,94.5,-1.0,+,97.53,Active,0,LEO,USA,USA,Unknown,Unknown,Vega,1 56976U 23084AW  24020.00578934  .00034544  00000+0  14260-2 0  9998,2 56976  97.5261 140.3260 0012205 160.6815 199.4887 15.23881305 33556,15.23881305,0.0012205,LEO
56978,SPACEBEE-173,2023,94.49,-1.0,+,97.53,Active,0,LEO,USA,USA,Unknown,Unknown,Vega,1 56978U 23084AY  24020.32665406  .00033679  00000+0  13865-2 0  9994,2 56978  97.5262 140.6690 0012442 158.9723 201.2028 15.23976401 33607,15.23976401,0.0012442,LEO
56979,SPACEBEE-172,2023,94.5,-1.0,+,97.53,Active,0,LEO,USA,USA,Unknown,Unknown,Vega,1 56979U 23084AZ  24020.27419003  .00034333  00000+0  14168-2 0  9994,2 56979  97.5258 140.5758 0012548 160.2987 199.8737 15.23890739 33598,15.23890739,0.0012548,LEO
56980,SPACEBEE-171,2023,94.49,-1.0,+,97.53,Active,0,LEO,USA,USA,Unknown,Unknown,Vega,1 56980U 23084BA  24020.32092387  .00033624  00000+0  13815-2 0  9994,2 56980  97.5260 140.6782 0012468 158.9619 201.2133 15.24043191 33601,15.24043191,0.0012468,LEO
56983,SPACEBEE-170,2023,94.51,-1.0,+,97.53,Active,0,LEO,USA,USA,Unknown,Unknown,Vega,1 56983U 23084BD  24020.33567073  .00036348  00000+0  15037-2 0  9991,2 56983  97.5277 140.6740 0012046 156.2270 203.9526 15.23799456 33608,15.23799456,0.0012046,LEO
56984,SPACEBEE-168,2023,94.43,-1.0,+,97.53,Active,0,LEO,USA,USA,Unknown,Unknown,Vega,1 56984U 23084BE  24020.29220565  .00041272  00000+0  16469-2 0  9991,2 56984  97.5257 140.7502 0012320 160.8593 199.3110 15.24979253 33601,15.24979253,0.001232,LEO
56985,SPACEBEE-175,2023,94.5,-1.0,+,97.53,Active,0,LEO,USA,USA,Unknown,Unknown,Vega,1 56985U 23084BF  24020.31086735  .00034059  00000+0  14086-2 0  9992,2 56985  97.5276 140.7105 0013440 162.7028 197.4670 15.23807273 33601,15.23807273,0.001344,LEO
